[{"OBJECT_NAME":"STARLINK-4178","OBJECT_ID":"2022-086AM","EPOCH":"2026-03-09T14:50:42.829728","MEAN_MOTION":15.08836765,"ECCENTRICITY":0.0001282,"INCLINATION":53.2181,"RA_OF_ASC_NODE":184.4725,"ARG_OF_PERICENTER":82.3067,"MEAN_ANOMALY":277.8071,"EPHEMERIS_TYPE":0,"CLASSIFICATION_TYPE":"U","NORAD_CAT_ID":53277,"ELEMENT_SET_NO":999,"REV_AT_EPOCH":20118,"BSTAR":1.3252e-5,"MEAN_MOTION_DOT":-7.7e-7,"MEAN_MOTION_DDOT":0},{"OBJECT_NAME":"OBJECT M","OBJECT_ID":"2017-042M","EPOCH":"2026-03-09T22:38:39.337440","MEAN_MOTION":15.07991931,"ECCENTRICITY":0.0005117,"INCLINATION":97.4139,"RA_OF_ASC_NODE":234.2602,"ARG_OF_PERICENTER":83.1417,"MEAN_ANOMALY":277.0393,"EPHEMERIS_TYPE":0,"CLASSIFICATION_TYPE":"U","NORAD_CAT_ID":42836,"ELEMENT_SET_NO":999,"REV_AT_EPOCH":47205,"BSTAR":0.00047182615,"MEAN_MOTION_DOT":7.201e-5,"MEAN_MOTION_DDOT":0}]
